ONEWEB-0336             
1 49202U 21083S   26195.37788311 -.00000012  00000+0 -69131-4 0  9990
2 49202  87.8974 314.8158 0001851  90.6681 269.4660 13.13469790234484
ONEWEB-0337             
1 49203U 21083T   26195.38791516  .00000238  00000+0  61630-3 0  9996
2 49203  87.8974 314.8195 0002062  95.0927 265.0437 13.13469707234485
ONEWEB-0338             
1 49204U 21083U   26195.61657336  .00000124  00000+0  27232-3 0  9998
2 49204  87.9184 268.9811 0002119 107.3175 252.8190 13.20770772240436
ONEWEB-0339             
1 49205U 21083V   26195.39651135  .00000340  00000+0  89527-3 0  9990
2 49205  87.8974 314.8115 0002139 107.0797 253.0567 13.13469492234463
ONEWEB-0340             
1 49206U 21083W   26195.44905970 -.00000023  00000+0 -91683-4 0  9993
2 49206  87.9198 330.0350 0001861  93.7504 266.3841 13.18687593233563
ONEWEB-0341             
1 49207U 21083X   26195.45579861  .00000076  00000+0  16093-3 0  9998
2 49207  87.9190 330.0351 0002344  91.1334 269.0066 13.18687876233582
ONEWEB-0342             
1 49208U 21083Y   26195.62331384  .00000106  00000+0  22986-3 0  9996
2 49208  87.9187 268.9703 0002148 101.5407 258.5967 13.20772148240400
ONEWEB-0343             
1 49209U 21083Z   26195.38835757  .00000109  00000+0  24376-3 0  9991
2 49209  87.9190 330.0469 0002224 106.5481 253.5896 13.18688126233628
ONEWEB-0344             
1 49210U 21083AA  26195.39142110  .00000293  00000+0  76729-3 0  9991
2 49210  87.8974 314.8245 0002270  92.2647 267.8742 13.13469280234461
ONEWEB-0345             
1 49211U 21083AB  26195.38296640  .00000106  00000+0  25659-3 0  9998
2 49211  87.8984 314.8112 0002228  95.0126 265.1258 13.13469864234474
ONEWEB-0346             
1 49212U 21083AC  26195.38498404  .00000051  00000+0  96942-4 0  9994
2 49212  87.9186 330.0471 0001568  78.6634 281.4674 13.18688096233562
ONEWEB-0348             
1 49213U 21083AD  26195.61321692  .00000106  00000+0  22858-3 0  9990
2 49213  87.9188 268.9764 0002118  83.2551 276.8824 13.20772162240431
ONEWEB-0350             
1 49214U 21083AE  26195.40172092  .00000346  00000+0  91150-3 0  9993
2 49214  87.8981 314.8122 0001555 134.2724 225.8533 13.13471420234501
ONEWEB-0351             
1 49215U 21083AF  26195.60634716 -.00004887  00000+0 -12057-1 0  9995
2 49215  87.9200 268.9769 0002820 106.3158 253.8286 13.20780641240396
ONEWEB-0352             
1 49216U 21083AG  26195.37280616 -.00000198  00000+0 -57651-3 0  9998
2 49216  87.8978 314.8228 0002272 107.5890 252.5488 13.13470427234591
ONEWEB-0354             
1 49217U 21083AH  26195.48190134  .00000101  00000+0  21730-3 0  9997
2 49217  87.9187 269.0004 0002206  88.8219 271.3167 13.20770878240413
ONEWEB-0355             
1 49218U 21083AJ  26190.29849357  .00000351  00000+0  92727-3 0  9991
2 49218  87.8970 315.8320 0002043 101.5704 258.5654 13.13300713233807
ONEWEB-0357             
1 49219U 21083AK  26195.47852515  .00000049  00000+0  87520-4 0  9997
2 49219  87.9186 268.9948 0002251 102.0558 258.0828 13.20769928240414
ONEWEB-0332             
1 49279U 21090A   26195.62104085  .00000238  00000+0  60819-3 0  9991
2 49279  87.8967 284.2431 0001981 107.1378 252.9969 13.14502503231189
ONEWEB-0347             
1 49280U 21090B   26195.61994139  .00000034  00000+0  51387-4 0  9994
2 49280  87.9186 268.9744 0001989 106.1493 253.9860 13.20769769234669
ONEWEB-0349             
1 49281U 21090C   26195.57616561 -.00000132  00000+0 -35590-3 0  9998
2 49281  87.9190 268.9839 0002006  98.6953 261.4408 13.20768525233443
ONEWEB-0353             
1 49282U 21090D   26195.61311385  .00000185  00000+0  46558-3 0  9992
2 49282  87.8968 284.2410 0001954 108.7796 251.3546 13.14502550231188
ONEWEB-0356             
1 49283U 21090E   26195.49873328 -.00000074  00000+0 -21491-3 0  9997
2 49283  87.9187 268.9928 0001253  93.0400 267.0877 13.20770032233436
ONEWEB-0358             
1 49284U 21090F   26195.61067274  .00002919  00000+0  71456-2 0  9990
2 49284  87.9192 268.9785 0002652  68.6105 291.5311 13.20761978234174
ONEWEB-0359             
1 49285U 21090G   26195.44990476  .00000147  00000+0  32982-3 0  9994
2 49285  87.9188 269.0022 0002134  91.3016 268.8362 13.20770814234133
ONEWEB-0360             
1 49286U 21090H   26195.59133733  .00000025  00000+0  28471-4 0  9990
2 49286  87.9190 268.9802 0002160  98.7810 261.3568 13.20771329233466
ONEWEB-0361             
1 49287U 21090J   26195.57280157  .00000019  00000+0  14608-4 0  9992
2 49287  87.9187 268.9826 0002042  95.2777 264.8589 13.20772858233911
ONEWEB-0362             
1 49288U 21090K   26195.54709370  .00000104  00000+0  22632-3 0  9993
2 49288  87.9187 299.5299 0002278 101.6493 258.4895 13.19726243230522
ONEWEB-0363             
1 49289U 21090L   26195.58796114 -.00000022  00000+0 -86153-4 0  9990
2 49289  87.9189 268.9794 0001747  94.6501 265.4832 13.20772162233925
ONEWEB-0364             
1 49290U 21090M   26195.62667441  .00000054  00000+0  10137-3 0  9998
2 49290  87.9186 268.9796 0002122  99.6539 260.4834 13.20769714235063
