OBJECT_NAME,OBJECT_ID,EPOCH,MEAN_MOTION,ECCENTRICITY,INCLINATION,RA_OF_ASC_NODE,ARG_OF_PERICENTER,MEAN_ANOMALY,EPHEMERIS_TYPE,CLASSIFICATION_TYPE,NORAD_CAT_ID,ELEMENT_SET_NO,REV_AT_EPOCH,BSTAR,MEAN_MOTION_DOT,MEAN_MOTION_DDOT
ONEWEB-0336,2021-083S,2026-07-14T09:04:09.100704,13.13469790,.00018519,87.8974,314.8158,90.6681,269.4660,0,U,49202,999,23448,-.69130536E-4,-.12E-6,0
ONEWEB-0337,2021-083T,2026-07-14T09:18:35.869824,13.13469707,.00020627,87.8974,314.8195,95.0927,265.0437,0,U,49203,999,23448,.61629531E-3,.238E-5,0
ONEWEB-0338,2021-083U,2026-07-14T14:47:51.938304,13.20770772,.00021193,87.9184,268.9811,107.3175,252.8190,0,U,49204,999,24043,.27231871E-3,.124E-5,0
ONEWEB-0339,2021-083V,2026-07-14T09:30:58.580640,13.13469492,.00021394,87.8974,314.8115,107.0797,253.0567,0,U,49205,999,23446,.89526741E-3,.34E-5,0
ONEWEB-0340,2021-083W,2026-07-14T10:46:38.758080,13.18687593,.00018619,87.9198,330.0350,93.7504,266.3841,0,U,49206,999,23356,-.91682932E-4,-.23E-6,0
ONEWEB-0341,2021-083X,2026-07-14T10:56:20.999904,13.18687876,.00023449,87.9190,330.0351,91.1334,269.0066,0,U,49207,999,23358,.16093409E-3,.76E-6,0
ONEWEB-0342,2021-083Y,2026-07-14T14:57:34.315776,13.20772148,.00021482,87.9187,268.9703,101.5407,258.5967,0,U,49208,999,24040,.22986104E-3,.106E-5,0
ONEWEB-0343,2021-083Z,2026-07-14T09:19:14.094048,13.18688126,.00022244,87.9190,330.0469,106.5481,253.5896,0,U,49209,999,23362,.24376486E-3,.109E-5,0
ONEWEB-0344,2021-083AA,2026-07-14T09:23:38.783040,13.13469280,.00022704,87.8974,314.8245,92.2647,267.8742,0,U,49210,999,23446,.76728916E-3,.293E-5,0
ONEWEB-0345,2021-083AB,2026-07-14T09:11:28.296960,13.13469864,.00022288,87.8984,314.8112,95.0126,265.1258,0,U,49211,999,23447,.25658842E-3,.106E-5,0
ONEWEB-0346,2021-083AC,2026-07-14T09:14:22.621056,13.18688096,.00015688,87.9186,330.0471,78.6634,281.4674,0,U,49212,999,23356,.96941652E-4,.51E-6,0
ONEWEB-0348,2021-083AD,2026-07-14T14:43:01.941888,13.20772162,.00021188,87.9188,268.9764,83.2551,276.8824,0,U,49213,999,24043,.22858279E-3,.106E-5,0
ONEWEB-0350,2021-083AE,2026-07-14T09:38:28.687488,13.13471420,.00015551,87.8981,314.8122,134.2724,225.8533,0,U,49214,999,23450,.91149676E-3,.346E-5,0
ONEWEB-0351,2021-083AF,2026-07-14T14:33:08.394624,13.20780641,.00028204,87.9200,268.9769,106.3158,253.8286,0,U,49215,999,24039,-.12056823E-1,-.4887E-4,0
ONEWEB-0352,2021-083AG,2026-07-14T08:56:50.452224,13.13470427,.0002272,87.8978,314.8228,107.5890,252.5488,0,U,49216,999,23459,-.57650517E-3,-.198E-5,0
ONEWEB-0354,2021-083AH,2026-07-14T11:33:56.275776,13.20770878,.00022063,87.9187,269.0004,88.8219,271.3167,0,U,49217,999,24041,.21730154E-3,.101E-5,0
ONEWEB-0355,2021-083AJ,2026-07-09T07:09:49.844448,13.13300713,.00020436,87.8970,315.8320,101.5704,258.5654,0,U,49218,999,23380,.92726532E-3,.351E-5,0
ONEWEB-0357,2021-083AK,2026-07-14T11:29:04.572960,13.20769928,.0002251,87.9186,268.9948,102.0558,258.0828,0,U,49219,999,24041,.87519652E-4,.49E-6,0
ONEWEB-0332,2021-090A,2026-07-14T14:54:17.929440,13.14502503,.0001981,87.8967,284.2431,107.1378,252.9969,0,U,49279,999,23118,.6081937E-3,.238E-5,0
ONEWEB-0347,2021-090B,2026-07-14T14:52:42.936096,13.20769769,.00019897,87.9186,268.9744,106.1493,253.9860,0,U,49280,999,23466,.51386836E-4,.34E-6,0
ONEWEB-0349,2021-090C,2026-07-14T13:49:40.708704,13.20768525,.0002006,87.9190,268.9839,98.6953,261.4408,0,U,49281,999,23344,-.35590064E-3,-.132E-5,0
ONEWEB-0353,2021-090D,2026-07-14T14:42:53.036640,13.14502550,.00019548,87.8968,284.2410,108.7796,251.3546,0,U,49282,999,23118,.46557697E-3,.185E-5,0
ONEWEB-0356,2021-090E,2026-07-14T11:58:10.555392,13.20770032,.00012534,87.9187,268.9928,93.0400,267.0877,0,U,49283,999,23343,-.2149137E-3,-.74E-6,0
ONEWEB-0358,2021-090F,2026-07-14T14:39:22.124736,13.20761978,.00026523,87.9192,268.9785,68.6105,291.5311,0,U,49284,999,23417,.71456226E-2,.2919E-4,0
ONEWEB-0359,2021-090G,2026-07-14T10:47:51.771264,13.20770814,.00021347,87.9188,269.0022,91.3016,268.8362,0,U,49285,999,23413,.3298218E-3,.147E-5,0
ONEWEB-0360,2021-090H,2026-07-14T14:11:31.545312,13.20771329,.00021606,87.9190,268.9802,98.7810,261.3568,0,U,49286,999,23346,.28470682E-4,.25E-6,0
ONEWEB-0361,2021-090J,2026-07-14T13:44:50.055648,13.20772858,.0002042,87.9187,268.9826,95.2777,264.8589,0,U,49287,999,23391,.14608191E-4,.19E-6,0
ONEWEB-0362,2021-090K,2026-07-14T13:07:48.895680,13.19726243,.00022788,87.9187,299.5299,101.6493,258.4895,0,U,49288,999,23052,.22632181E-3,.104E-5,0
ONEWEB-0363,2021-090L,2026-07-14T14:06:39.842496,13.20772162,.00017472,87.9189,268.9794,94.6501,265.4832,0,U,49289,999,23392,-.86152731E-4,-.22E-6,0
ONEWEB-0364,2021-090M,2026-07-14T15:02:24.669024,13.20769714,.00021227,87.9186,268.9796,99.6539,260.4834,0,U,49290,999,23506,.10136816E-3,.54E-6,0
